{
  "type": "FeatureCollection",
  "features": [
    {
      "type": "Feature",
      "properties": {
        "norad_id": 30571,
        "name": "FENGYUN 1C DEB",
        "group": "fengyun-1c-debris",
        "lat": -15.80361902929843,
        "lon": 12.010078440906362,
        "alt_km": 864.234220579282,
        "timestamp": "2025-12-09T04:51:47.770565+00:00",
        "meta_object_name": "FENGYUN 1C DEB",
        "meta_object_id": "1999-025ALM",
        "meta_epoch": "2025-12-08T14:11:06.060768",
        "meta_mean_motion": 14.10690055,
        "meta_eccentricity": 0.0020637,
        "meta_inclination": 98.7315,
        "meta_ra_of_asc_node": 8.9229,
        "meta_arg_of_pericenter": 246.0493,
        "meta_mean_anomaly": 233.602,
        "meta_ephemeris_type": 0,
        "meta_classification_type": "U",
        "meta_norad_cat_id": 30571,
        "meta_element_set_no": 999,
        "meta_rev_at_epoch": 96828,
        "meta_bstar": 0.00049124,
        "meta_mean_motion_dot": 8.36e-06,
        "meta_mean_motion_ddot": 0,
        "tle_line1": "1 30571U 99025ALM 25342.59104237  .00000836  00000+0  49124-3 0  9997",
        "tle_line2": "2 30571  98.7315   8.9229 0020637 246.0493 233.6020 14.10690055968287"
      },
      "geometry": {
        "type": "Point",
        "coordinates": [
          12.010078440906362,
          -15.80361902929843
        ]
      }
    },
    {
      "type": "Feature",
      "properties": {
        "norad_id": 30572,
        "name": "FENGYUN 1C DEB",
        "group": "fengyun-1c-debris",
        "lat": -80.8368500704023,
        "lon": 86.11751153437594,
        "alt_km": 857.288214714722,
        "timestamp": "2025-12-09T04:51:47.770575+00:00",
        "meta_object_name": "FENGYUN 1C DEB",
        "meta_object_id": "1999-025ALN",
        "meta_epoch": "2025-12-08T16:14:27.845952",
        "meta_mean_motion": 14.08916169,
        "meta_eccentricity": 0.0021222,
        "meta_inclination": 98.7727,
        "meta_ra_of_asc_node": 12.4088,
        "meta_arg_of_pericenter": 305.5981,
        "meta_mean_anomaly": 181.1134,
        "meta_ephemeris_type": 0,
        "meta_classification_type": "U",
        "meta_norad_cat_id": 30572,
        "meta_element_set_no": 999,
        "meta_rev_at_epoch": 96704,
        "meta_bstar": 0.00057087,
        "meta_mean_motion_dot": 9.46e-06,
        "meta_mean_motion_ddot": 0,
        "tle_line1": "1 30572U 99025ALN 25342.67671118  .00000946  00000+0  57087-3 0  9993",
        "tle_line2": "2 30572  98.7727  12.4088 0021222 305.5981 181.1134 14.08916169967042"
      },
      "geometry": {
        "type": "Point",
        "coordinates": [
          86.11751153437594,
          -80.8368500704023
        ]
      }
    },
    {
      "type": "Feature",
      "properties": {
        "norad_id": 30573,
        "name": "FENGYUN 1C DEB",
        "group": "fengyun-1c-debris",
        "lat": 40.27037509747086,
        "lon": -151.25958193009586,
        "alt_km": 895.0303413867259,
        "timestamp": "2025-12-09T04:51:47.770585+00:00",
        "meta_object_name": "FENGYUN 1C DEB",
        "meta_object_id": "1999-025ALP",
        "meta_epoch": "2025-12-08T01:09:54.789984",
        "meta_mean_motion": 14.13789063,
        "meta_eccentricity": 0.00881683,
        "meta_inclination": 99.2262,
        "meta_ra_of_asc_node": 19.6354,
        "meta_arg_of_pericenter": 287.0208,
        "meta_mean_anomaly": 101.9087,
        "meta_ephemeris_type": 0,
        "meta_classification_type": "U",
        "meta_norad_cat_id": 30573,
        "meta_element_set_no": 999,
        "meta_rev_at_epoch": 96131,
        "meta_bstar": 0.0024543964,
        "meta_mean_motion_dot": 4.775e-05,
        "meta_mean_motion_ddot": 0,
        "tle_line1": "1 30573U 99025ALP 25342.04855081  .00004775  00000+0  24544-2 0  9993",
        "tle_line2": "2 30573  99.2262  19.6354 0088168 287.0208 101.9087 14.13789063961314"
      },
      "geometry": {
        "type": "Point",
        "coordinates": [
          -151.25958193009586,
          40.27037509747086
        ]
      }
    },
    {
      "type": "Feature",
      "properties": {
        "norad_id": 30574,
        "name": "FENGYUN 1C DEB",
        "group": "fengyun-1c-debris",
        "lat": 5.387541185392958,
        "lon": -32.2503315269252,
        "alt_km": 1135.709787011253,
        "timestamp": "2025-12-09T04:51:47.770595+00:00",
        "meta_object_name": "FENGYUN 1C DEB",
        "meta_object_id": "1999-025ALQ",
        "meta_epoch": "2025-12-07T22:23:05.780256",
        "meta_mean_motion": 13.77487686,
        "meta_eccentricity": 0.02189546,
        "meta_inclination": 99.3023,
        "meta_ra_of_asc_node": 145.6201,
        "meta_arg_of_pericenter": 0.2226,
        "meta_mean_anomaly": 359.8986,
        "meta_ephemeris_type": 0,
        "meta_classification_type": "U",
        "meta_norad_cat_id": 30574,
        "meta_element_set_no": 999,
        "meta_rev_at_epoch": 93702,
        "meta_bstar": 0.0027328429,
        "meta_mean_motion_dot": 3.204e-05,
        "meta_mean_motion_ddot": 0,
        "tle_line1": "1 30574U 99025ALQ 25341.93270579  .00003204  00000+0  27328-2 0  9993",
        "tle_line2": "2 30574  99.3023 145.6201 0218954   0.2226 359.8986 13.77487686937023"
      },
      "geometry": {
        "type": "Point",
        "coordinates": [
          -32.2503315269252,
          5.387541185392958
        ]
      }
    },
    {
      "type": "Feature",
      "properties": {
        "norad_id": 30575,
        "name": "FENGYUN 1C DEB",
        "group": "fengyun-1c-debris",
        "lat": -54.790493912706204,
        "lon": -119.36067554922649,
        "alt_km": 727.568988554156,
        "timestamp": "2025-12-09T04:51:47.770605+00:00",
        "meta_object_name": "FENGYUN 1C DEB",
        "meta_object_id": "1999-025ALR",
        "meta_epoch": "2025-12-08T20:01:27.172128",
        "meta_mean_motion": 14.40023709,
        "meta_eccentricity": 0.0054001,
        "meta_inclination": 99.1698,
        "meta_ra_of_asc_node": 73.4776,
        "meta_arg_of_pericenter": 248.0307,
        "meta_mean_anomaly": 239.684,
        "meta_ephemeris_type": 0,
        "meta_classification_type": "U",
        "meta_norad_cat_id": 30575,
        "meta_element_set_no": 999,
        "meta_rev_at_epoch": 98161,
        "meta_bstar": 0.0018182,
        "meta_mean_motion_dot": 5.782e-05,
        "meta_mean_motion_ddot": 0,
        "tle_line1": "1 30575U 99025ALR 25342.83434227  .00005782  00000+0  18182-2 0  9997",
        "tle_line2": "2 30575  99.1698  73.4776 0054001 248.0307 239.6840 14.40023709981619"
      },
      "geometry": {
        "type": "Point",
        "coordinates": [
          -119.36067554922649,
          -54.790493912706204
        ]
      }
    },
    {
      "type": "Feature",
      "properties": {
        "norad_id": 30577,
        "name": "FENGYUN 1C DEB",
        "group": "fengyun-1c-debris",
        "lat": -63.34243726061937,
        "lon": 35.126297800614296,
        "alt_km": 841.953270606823,
        "timestamp": "2025-12-09T04:51:47.770615+00:00",
        "meta_object_name": "FENGYUN 1C DEB",
        "meta_object_id": "1999-025ALT",
        "meta_epoch": "2025-12-08T02:02:06.031392",
        "meta_mean_motion": 14.1113119,
        "meta_eccentricity": 0.00286459,
        "meta_inclination": 98.7709,
        "meta_ra_of_asc_node": 16.1243,
        "meta_arg_of_pericenter": 295.7901,
        "meta_mean_anomaly": 83.9532,
        "meta_ephemeris_type": 0,
        "meta_classification_type": "U",
        "meta_norad_cat_id": 30577,
        "meta_element_set_no": 999,
        "meta_rev_at_epoch": 96719,
        "meta_bstar": 0.00073623153,
        "meta_mean_motion_dot": 1.288e-05,
        "meta_mean_motion_ddot": 0,
        "tle_line1": "1 30577U 99025ALT 25342.08479203  .00001288  00000+0  73623-3 0  9998",
        "tle_line2": "2 30577  98.7709  16.1243 0028645 295.7901  83.9532 14.11131190967193"
      },
      "geometry": {
        "type": "Point",
        "coordinates": [
          35.126297800614296,
          -63.34243726061937
        ]
      }
    },
    {
      "type": "Feature",
      "properties": {
        "norad_id": 30579,
        "name": "FENGYUN 1C DEB",
        "group": "fengyun-1c-debris",
        "lat": -36.07719543653753,
        "lon": -178.50602354687925,
        "alt_km": 890.643993266387,
        "timestamp": "2025-12-09T04:51:47.770625+00:00",
        "meta_object_name": "FENGYUN 1C DEB",
        "meta_object_id": "1999-025ALV",
        "meta_epoch": "2025-12-08T13:11:01.413024",
        "meta_mean_motion": 14.05242873,
        "meta_eccentricity": 0.0053709,
        "meta_inclination": 98.807,
        "meta_ra_of_asc_node": 7.3453,
        "meta_arg_of_pericenter": 115.1008,
        "meta_mean_anomaly": 37.5724,
        "meta_ephemeris_type": 0,
        "meta_classification_type": "U",
        "meta_norad_cat_id": 30579,
        "meta_element_set_no": 999,
        "meta_rev_at_epoch": 96398,
        "meta_bstar": 0.00056211,
        "meta_mean_motion_dot": 8.78e-06,
        "meta_mean_motion_ddot": 0,
        "tle_line1": "1 30579U 99025ALV 25342.54932191  .00000878  00000+0  56211-3 0  9999",
        "tle_line2": "2 30579  98.8070   7.3453 0053709 115.1008  37.5724 14.05242873963989"
      },
      "geometry": {
        "type": "Point",
        "coordinates": [
          -178.50602354687925,
          -36.07719543653753
        ]
      }
    }
  ]
}